{"type": "FeatureCollection", "features": [ {"type": "Feature", "properties": {"norad_id": 39019, "name": "PLEIADES 1B", "group": "resource", "lat": 47.413112181110556, "lon": -98.4003533304352, "alt_km": 693.0488933169618, "timestamp": "2025-12-26T03:50:11.744655+00:00", "meta": {"OBJECT_NAME": "PLEIADES 1B", "OBJECT_ID": "2012-068A", "EPOCH": "2025-12-25T20:38:54.404160", "MEAN_MOTION": 14.58564569, "ECCENTRICITY": 0.0001149, "INCLINATION": 98.1776, "RA_OF_ASC_NODE": 72.304, "ARG_OF_PERICENTER": 85.7902, "MEAN_ANOMALY": 274.3429, "EPHEMERIS_TYPE": 0, "CLASSIFICATION_TYPE": "U", "NORAD_CAT_ID": 39019, "ELEMENT_SET_NO": 999, "REV_AT_EPOCH": 69558, "BSTAR": 0.00010314, "MEAN_MOTION_DOT": 4.34e-06, "MEAN_MOTION_DDOT": 0}, "tle": {"line1": "1 39019U 12068A   25359.86035190  .00000434  00000+0  10314-3 0  9997", "line2": "2 39019  98.1776  72.3040 0001149  85.7902 274.3429 14.58564569695581"}}, "geometry": {"type": "Point", "coordinates": [-98.4003533304352, 47.413112181110556]}}, {"type": "Feature", "properties": {"norad_id": 39030, "name": "GOKTURK 2", "group": "resource", "lat": 72.56455622204491, "lon": 175.6763804382666, "alt_km": 636.3148872400598, "timestamp": "2025-12-26T03:50:11.744665+00:00", "meta": {"OBJECT_NAME": "GOKTURK 2", "OBJECT_ID": "2012-073A", "EPOCH": "2025-12-25T20:59:23.966016", "MEAN_MOTION": 14.75310987, "ECCENTRICITY": 0.0001469, "INCLINATION": 97.6885, "RA_OF_ASC_NODE": 200.882, "ARG_OF_PERICENTER": 106.6772, "MEAN_ANOMALY": 253.4599, "EPHEMERIS_TYPE": 0, "CLASSIFICATION_TYPE": "U", "NORAD_CAT_ID": 39030, "ELEMENT_SET_NO": 999, "REV_AT_EPOCH": 69895, "BSTAR": 0.00020158, "MEAN_MOTION_DOT": 1.319e-05, "MEAN_MOTION_DDOT": 0}, "tle": {"line1": "1 39030U 12073A   25359.87458294  .00001319  00000+0  20158-3 0  9991", "line2": "2 39030  97.6885 200.8820 0001469 106.6772 253.4599 14.75310987698958"}}, "geometry": {"type": "Point", "coordinates": [175.6763804382666, 72.56455622204491]}}, {"type": "Feature", "properties": {"norad_id": 39084, "name": "LANDSAT 8", "group": "resource", "lat": -51.51849499008392, "lon": -122.42437543504705, "alt_km": 710.0087091714386, "timestamp": "2025-12-26T03:50:11.744676+00:00", "meta": {"OBJECT_NAME": "LANDSAT 8", "OBJECT_ID": "2013-008A", "EPOCH": "2025-12-25T18:32:02.209056", "MEAN_MOTION": 14.5711542, "ECCENTRICITY": 0.000105, "INCLINATION": 98.2055, "RA_OF_ASC_NODE": 67.6524, "ARG_OF_PERICENTER": 93.4154, "MEAN_ANOMALY": 266.7164, "EPHEMERIS_TYPE": 0, "CLASSIFICATION_TYPE": "U", "NORAD_CAT_ID": 39084, "ELEMENT_SET_NO": 999, "REV_AT_EPOCH": 67264, "BSTAR": 0.00010649, "MEAN_MOTION_DOT": 4.35e-06, "MEAN_MOTION_DDOT": 0}, "tle": {"line1": "1 39084U 13008A   25359.77224779  .00000435  00000+0  10649-3 0  9999", "line2": "2 39084  98.2055  67.6524 0001050  93.4154 266.7164 14.57115420672644"}}, "geometry": {"type": "Point", "coordinates": [-122.42437543504705, -51.51849499008392]}}, {"type": "Feature", "properties": {"norad_id": 39086, "name": "SARAL", "group": "resource", "lat": 55.711782810572785, "lon": 16.661850636085173, "alt_km": 775.5569476229894, "timestamp": "2025-12-26T03:50:11.744687+00:00", "meta": {"OBJECT_NAME": "SARAL", "OBJECT_ID": "2013-009A", "EPOCH": "2025-12-25T18:52:59.729952", "MEAN_MOTION": 14.32761473, "ECCENTRICITY": 0.0002958, "INCLINATION": 98.5504, "RA_OF_ASC_NODE": 183.5469, "ARG_OF_PERICENTER": 84.152, "MEAN_ANOMALY": 276.0001, "EPHEMERIS_TYPE": 0, "CLASSIFICATION_TYPE": "U", "NORAD_CAT_ID": 39086, "ELEMENT_SET_NO": 999, "REV_AT_EPOCH": 67077, "BSTAR": 6.388e-05, "MEAN_MOTION_DOT": 1.3e-06, "MEAN_MOTION_DDOT": 0}, "tle": {"line1": "1 39086U 13009A   25359.78680243  .00000130  00000+0  63880-4 0  9993", "line2": "2 39086  98.5504 183.5469 0002958  84.1520 276.0001 14.32761473670770"}}, "geometry": {"type": "Point", "coordinates": [16.661850636085173, 55.711782810572785]}}, {"type": "Feature", "properties": {"norad_id": 39150, "name": "GAOFEN-1", "group": "resource", "lat": -31.287827545383816, "lon": -114.27929618884649, "alt_km": 650.7083317202823, "timestamp": "2025-12-26T03:50:11.744698+00:00", "meta": {"OBJECT_NAME": "GAOFEN-1", "OBJECT_ID": "2013-018A", "EPOCH": "2025-12-25T20:22:39.283392", "MEAN_MOTION": 14.76503246, "ECCENTRICITY": 0.0018542, "INCLINATION": 97.9308, "RA_OF_ASC_NODE": 70.2753, "ARG_OF_PERICENTER": 103.2686, "MEAN_ANOMALY": 257.0594, "EPHEMERIS_TYPE": 0, "CLASSIFICATION_TYPE": "U", "NORAD_CAT_ID": 39150, "ELEMENT_SET_NO": 999, "REV_AT_EPOCH": 68266, "BSTAR": 0.00016474, "MEAN_MOTION_DOT": 1.1e-05, "MEAN_MOTION_DDOT": 0}, "tle": {"line1": "1 39150U 13018A   25359.84906578  .00001100  00000+0  16474-3 0  9998", "line2": "2 39150  97.9308  70.2753 0018542 103.2686 257.0594 14.76503246682664"}}, "geometry": {"type": "Point", "coordinates": [-114.27929618884649, -31.287827545383816]}}, {"type": "Feature", "properties": {"norad_id": 39160, "name": "VNREDSAT 1", "group": "resource", "lat": 73.01085263072467, "lon": 27.80008788711122, "alt_km": 669.4373735440076, "timestamp": "2025-12-26T03:50:11.744708+00:00", "meta": {"OBJECT_NAME": "VNREDSAT 1", "OBJECT_ID": "2013-021B", "EPOCH": "2025-12-25T19:17:58.180704", "MEAN_MOTION": 14.64941934, "ECCENTRICITY": 0.0001166, "INCLINATION": 97.9351, "RA_OF_ASC_NODE": 54.6199, "ARG_OF_PERICENTER": 82.8412, "MEAN_ANOMALY": 277.2924, "EPHEMERIS_TYPE": 0, "CLASSIFICATION_TYPE": "U", "NORAD_CAT_ID": 39160, "ELEMENT_SET_NO": 999, "REV_AT_EPOCH": 67490, "BSTAR": 0.00015985, "MEAN_MOTION_DOT": 8.1e-06, "MEAN_MOTION_DDOT": 0}, "tle": {"line1": "1 39160U 13021B   25359.80414561  .00000810  00000+0  15985-3 0  9998", "line2": "2 39160  97.9351  54.6199 0001166  82.8412 277.2924 14.64941934674902"}}, "geometry": {"type": "Point", "coordinates": [27.80008788711122, 73.01085263072467]}}, {"type": "Feature", "properties": {"norad_id": 39227, "name": "ARIRANG-5 (KOMPSAT-5)", "group": "resource", "lat": -79.42889804231895, "lon": -41.536563028168835, "alt_km": 561.7508848726666, "timestamp": "2025-12-26T03:50:11.744719+00:00", "meta": {"OBJECT_NAME": "ARIRANG-5 (KOMPSAT-5)", "OBJECT_ID": "2013-042A", "EPOCH": "2025-12-25T20:17:15.649728", "MEAN_MOTION": 15.04488012, "ECCENTRICITY": 0.0002986, "INCLINATION": 97.6165, "RA_OF_ASC_NODE": 183.963, "ARG_OF_PERICENTER": 33.4104, "MEAN_ANOMALY": 326.731, "EPHEMERIS_TYPE": 0, "CLASSIFICATION_TYPE": "U", "NORAD_CAT_ID": 39227, "ELEMENT_SET_NO": 999, "REV_AT_EPOCH": 67779, "BSTAR": 0.00017973, "MEAN_MOTION_DOT": 2.455e-05, "MEAN_MOTION_DDOT": 0}, "tle": {"line1": "1 39227U 13042A   25359.84532002  .00002455  00000+0  17973-3 0  9996", "line2": "2 39227  97.6165 183.9630 0002986  33.4104 326.7310 15.04488012677790"}}, "geometry": {"type": "Point", "coordinates": [-41.536563028168835, -79.42889804231895]}}, {"type": "Feature", "properties": {"norad_id": 39418, "name": "SKYSAT-A", "group": "resource", "lat": -77.52183322967343, "lon": -166.05438024103887, "alt_km": 533.5559890368704, "timestamp": "2025-12-26T03:50:11.744729+00:00", "meta": {"OBJECT_NAME": "SKYSAT-A", "OBJECT_ID": "2013-066C", "EPOCH": "2025-12-25T17:09:33.388128", "MEAN_MOTION": 15.11695287, "ECCENTRICITY": 0.00217, "INCLINATION": 97.4085, "RA_OF_ASC_NODE": 49.5285, "ARG_OF_PERICENTER": 190.0651, "MEAN_ANOMALY": 170.0148, "EPHEMERIS_TYPE": 0, "CLASSIFICATION_TYPE": "U", "NORAD_CAT_ID": 39418, "ELEMENT_SET_NO": 999, "REV_AT_EPOCH": 66226, "BSTAR": 0.00021064, "MEAN_MOTION_DOT": 3.542e-05, "MEAN_MOTION_DDOT": 0}, "tle": {"line1": "1 39418U 13066C   25359.71496977  .00003542  00000+0  21064-3 0  9994", "line2": "2 39418  97.4085  49.5285 0021700 190.0651 170.0148 15.11695287662263"}}, "geometry": {"type": "Point", "coordinates": [-166.05438024103887, -77.52183322967343]}}, {"type": "Feature", "properties": {"norad_id": 39419, "name": "DUBAISAT-2", "group": "resource", "lat": -64.85592908574905, "lon": 153.97315491674752, "alt_km": 541.81891695376, "timestamp": "2025-12-26T03:50:11.744739+00:00", "meta": {"OBJECT_NAME": "DUBAISAT-2", "OBJECT_ID": "2013-066D", "EPOCH": "2025-12-25T21:58:23.361024", "MEAN_MOTION": 15.08480458, "ECCENTRICITY": 0.0009826, "INCLINATION": 97.4469, "RA_OF_ASC_NODE": 349.9171, "ARG_OF_PERICENTER": 269.6488, "MEAN_ANOMALY": 90.3615, "EPHEMERIS_TYPE": 0, "CLASSIFICATION_TYPE": "U", "NORAD_CAT_ID": 39419, "ELEMENT_SET_NO": 999, "REV_AT_EPOCH": 66025, "BSTAR": 0.00024779, "MEAN_MOTION_DOT": 3.804e-05, "MEAN_MOTION_DDOT": 0}, "tle": {"line1": "1 39419U 13066D   25359.91554816  .00003804  00000+0  24779-3 0  9991", "line2": "2 39419  97.4469 349.9171 0009826 269.6488  90.3615 15.08480458660255"}}, "geometry": {"type": "Point", "coordinates": [153.97315491674752, -64.85592908574905]}}, {"type": "Feature", "properties": {"norad_id": 39574, "name": "GPM-CORE", "group": "resource", "lat": 7.537074239825497, "lon": 171.28360929845965, "alt_km": 436.2073824914769, "timestamp": "2025-12-26T03:50:11.744750+00:00", "meta": {"OBJECT_NAME": "GPM-CORE", "OBJECT_ID": "2014-009C", "EPOCH": "2025-12-25T20:01:53.111136", "MEAN_MOTION": 15.44668844, "ECCENTRICITY": 0.0009062, "INCLINATION": 64.9728, "RA_OF_ASC_NODE": 168.8282, "ARG_OF_PERICENTER": 251.1485, "MEAN_ANOMALY": 108.8673, "EPHEMERIS_TYPE": 0, "CLASSIFICATION_TYPE": "U", "NORAD_CAT_ID": 39574, "ELEMENT_SET_NO": 999, "REV_AT_EPOCH": 67103, "BSTAR": 0.00019801, "MEAN_MOTION_DOT": 9.051e-05, "MEAN_MOTION_DDOT": 0}, "tle": {"line1": "1 39574U 14009C   25359.83464249  .00009051  00000+0  19801-3 0  9992", "line2": "2 39574  64.9728 168.8282 0009062 251.1485 108.8673 15.44668844671034"}}, "geometry": {"type": "Point", "coordinates": [171.28360929845965, 7.537074239825497]}}]}